{
  "type": "FeatureCollection",
  "features": [
    {
      "type": "Feature",
      "properties": {
        "norad_id": 66920,
        "name": "HULIANWANG DIGUI-110",
        "group": "last-30-days",
        "lat": 25.03930197864026,
        "lon": -82.5925678315132,
        "alt_km": 873.6312094982104,
        "timestamp": "2025-12-11T22:43:46.026211+00:00",
        "meta_object_name": "HULIANWANG DIGUI-110",
        "meta_object_id": "2025-285F",
        "meta_epoch": "2025-12-11T15:12:41.831136",
        "meta_mean_motion": 14.05850638,
        "meta_eccentricity": 0.00058217,
        "meta_inclination": 50.0091,
        "meta_ra_of_asc_node": 121.773,
        "meta_arg_of_pericenter": 284.8167,
        "meta_mean_anomaly": 75.2093,
        "meta_ephemeris_type": 0,
        "meta_classification_type": "U",
        "meta_norad_cat_id": 66920,
        "meta_element_set_no": 999,
        "meta_rev_at_epoch": 75,
        "meta_bstar": 0.0001975267,
        "meta_mean_motion_dot": 1.73e-06,
        "meta_mean_motion_ddot": 0,
        "tle_line1": "1 66920U 25285F   25345.63381749  .00000173  00000+0  19753-3 0  9993",
        "tle_line2": "2 66920  50.0091 121.7730 0005821 284.8167  75.2093 14.05850638   751"
      },
      "geometry": {
        "type": "Point",
        "coordinates": [
          -82.5925678315132,
          25.03930197864026
        ]
      }
    },
    {
      "type": "Feature",
      "properties": {
        "norad_id": 66921,
        "name": "HULIANWANG DIGUI-111",
        "group": "last-30-days",
        "lat": 24.551359006623,
        "lon": -82.05133331032553,
        "alt_km": 874.535800288837,
        "timestamp": "2025-12-11T22:43:46.026221+00:00",
        "meta_object_name": "HULIANWANG DIGUI-111",
        "meta_object_id": "2025-285G",
        "meta_epoch": "2025-12-11T15:12:30.512736",
        "meta_mean_motion": 14.05885855,
        "meta_eccentricity": 0.00069674,
        "meta_inclination": 50.0107,
        "meta_ra_of_asc_node": 121.7743,
        "meta_arg_of_pericenter": 291.406,
        "meta_mean_anomaly": 68.6102,
        "meta_ephemeris_type": 0,
        "meta_classification_type": "U",
        "meta_norad_cat_id": 66921,
        "meta_element_set_no": 999,
        "meta_rev_at_epoch": 75,
        "meta_bstar": 0.00033536205,
        "meta_mean_motion_dot": 4e-06,
        "meta_mean_motion_ddot": 0,
        "tle_line1": "1 66921U 25285G   25345.63368649  .00000400  00000+0  33536-3 0  9996",
        "tle_line2": "2 66921  50.0107 121.7743 0006967 291.4060  68.6102 14.05885855   758"
      },
      "geometry": {
        "type": "Point",
        "coordinates": [
          -82.05133331032553,
          24.551359006623
        ]
      }
    },
    {
      "type": "Feature",
      "properties": {
        "norad_id": 66922,
        "name": "HULIANWANG DIGUI-112",
        "group": "last-30-days",
        "lat": 22.918438994968415,
        "lon": -80.3015096497393,
        "alt_km": 874.5818185376284,
        "timestamp": "2025-12-11T22:43:46.026243+00:00",
        "meta_object_name": "HULIANWANG DIGUI-112",
        "meta_object_id": "2025-285H",
        "meta_epoch": "2025-12-11T15:11:53.765088",
        "meta_mean_motion": 14.05999431,
        "meta_eccentricity": 0.00069636,
        "meta_inclination": 50.008,
        "meta_ra_of_asc_node": 121.7682,
        "meta_arg_of_pericenter": 297.459,
        "meta_mean_anomaly": 62.5607,
        "meta_ephemeris_type": 0,
        "meta_classification_type": "U",
        "meta_norad_cat_id": 66922,
        "meta_element_set_no": 999,
        "meta_rev_at_epoch": 75,
        "meta_bstar": 4.179939e-06,
        "meta_mean_motion_dot": -1.45e-06,
        "meta_mean_motion_ddot": 0,
        "tle_line1": "1 66922U 25285H   25345.63326117 -.00000145  00000+0  41799-5 0  9990",
        "tle_line2": "2 66922  50.0080 121.7682 0006963 297.4590  62.5607 14.05999431   750"
      },
      "geometry": {
        "type": "Point",
        "coordinates": [
          -80.3015096497393,
          22.918438994968415
        ]
      }
    },
    {
      "type": "Feature",
      "properties": {
        "norad_id": 66923,
        "name": "HULIANWANG DIGUI-113",
        "group": "last-30-days",
        "lat": 22.06168565150591,
        "lon": -79.40452397734713,
        "alt_km": 873.3154495763629,
        "timestamp": "2025-12-11T22:43:46.026254+00:00",
        "meta_object_name": "HULIANWANG DIGUI-113",
        "meta_object_id": "2025-285J",
        "meta_epoch": "2025-12-11T15:11:34.823616",
        "meta_mean_motion": 14.06055841,
        "meta_eccentricity": 0.00053982,
        "meta_inclination": 50.0078,
        "meta_ra_of_asc_node": 121.7679,
        "meta_arg_of_pericenter": 292.5356,
        "meta_mean_anomaly": 67.4978,
        "meta_ephemeris_type": 0,
        "meta_classification_type": "U",
        "meta_norad_cat_id": 66923,
        "meta_element_set_no": 999,
        "meta_rev_at_epoch": 75,
        "meta_bstar": 0.00020678963,
        "meta_mean_motion_dot": 1.89e-06,
        "meta_mean_motion_ddot": 0,
        "tle_line1": "1 66923U 25285J   25345.63304194  .00000189  00000+0  20679-3 0  9991",
        "tle_line2": "2 66923  50.0078 121.7679 0005398 292.5356  67.4978 14.06055841   755"
      },
      "geometry": {
        "type": "Point",
        "coordinates": [
          -79.40452397734713,
          22.06168565150591
        ]
      }
    },
    {
      "type": "Feature",
      "properties": {
        "norad_id": 66924,
        "name": "CZ-8A R/B",
        "group": "last-30-days",
        "lat": -48.76523141617987,
        "lon": 46.24701881174249,
        "alt_km": 879.8821053448619,
        "timestamp": "2025-12-11T22:43:46.026265+00:00",
        "meta_object_name": "CZ-8A R/B",
        "meta_object_id": "2025-285K",
        "meta_epoch": "2025-12-11T14:43:17.970816",
        "meta_mean_motion": 14.30501085,
        "meta_eccentricity": 0.01193158,
        "meta_inclination": 50.0062,
        "meta_ra_of_asc_node": 120.949,
        "meta_arg_of_pericenter": 102.7702,
        "meta_mean_anomaly": 258.6578,
        "meta_ephemeris_type": 0,
        "meta_classification_type": "U",
        "meta_norad_cat_id": 66924,
        "meta_element_set_no": 999,
        "meta_rev_at_epoch": 76,
        "meta_bstar": 9.4970033e-05,
        "meta_mean_motion_dot": 1.02e-06,
        "meta_mean_motion_ddot": 0,
        "tle_line1": "1 66924U 25285K   25345.61340244  .00000102  00000+0  94970-4 0  9997",
        "tle_line2": "2 66924  50.0062 120.9490 0119315 102.7702 258.6578 14.30501085   767"
      },
      "geometry": {
        "type": "Point",
        "coordinates": [
          46.24701881174249,
          -48.76523141617987
        ]
      }
    },
    {
      "type": "Feature",
      "properties": {
        "norad_id": 66953,
        "name": "HULIANWANG DIGUI-114",
        "group": "last-30-days",
        "lat": -69.86420483419822,
        "lon": 176.06680142402226,
        "alt_km": 1005.7103016677884,
        "timestamp": "2025-12-11T22:43:46.026279+00:00",
        "meta_object_name": "HULIANWANG DIGUI-114",
        "meta_object_id": "2025-287A",
        "meta_epoch": "2025-12-10T06:55:20.076384",
        "meta_mean_motion": 13.69073793,
        "meta_eccentricity": 0.00082441,
        "meta_inclination": 86.4956,
        "meta_ra_of_asc_node": 347.0512,
        "meta_arg_of_pericenter": 213.3003,
        "meta_mean_anomaly": 146.7638,
        "meta_ephemeris_type": 0,
        "meta_classification_type": "U",
        "meta_norad_cat_id": 66953,
        "meta_element_set_no": 999,
        "meta_rev_at_epoch": 19,
        "meta_bstar": 9.649594e-06,
        "meta_mean_motion_dot": 2.5e-07,
        "meta_mean_motion_ddot": 0,
        "tle_line1": "1 66953U 25287A   25344.28842681  .00000025  00000+0  96496-5 0  9995",
        "tle_line2": "2 66953  86.4956 347.0512 0008244 213.3003 146.7638 13.69073793   194"
      },
      "geometry": {
        "type": "Point",
        "coordinates": [
          176.06680142402226,
          -69.86420483419822
        ]
      }
    },
    {
      "type": "Feature",
      "properties": {
        "norad_id": 66954,
        "name": "HULIANWANG DIGUI-115",
        "group": "last-30-days",
        "lat": -70.86916800362553,
        "lon": 176.61809912264724,
        "alt_km": 1005.540799211758,
        "timestamp": "2025-12-11T22:43:46.026289+00:00",
        "meta_object_name": "HULIANWANG DIGUI-115",
        "meta_object_id": "2025-287B",
        "meta_epoch": "2025-12-10T10:25:40.434528",
        "meta_mean_motion": 13.69168852,
        "meta_eccentricity": 0.00081957,
        "meta_inclination": 86.4972,
        "meta_ra_of_asc_node": 346.9997,
        "meta_arg_of_pericenter": 212.0231,
        "meta_mean_anomaly": 148.0431,
        "meta_ephemeris_type": 0,
        "meta_classification_type": "U",
        "meta_norad_cat_id": 66954,
        "meta_element_set_no": 999,
        "meta_rev_at_epoch": 21,
        "meta_bstar": 1.1007839e-05,
        "meta_mean_motion_dot": 2.6e-07,
        "meta_mean_motion_ddot": 0,
        "tle_line1": "1 66954U 25287B   25344.43449577  .00000026  00000+0  11008-4 0  9996",
        "tle_line2": "2 66954  86.4972 346.9997 0008195 212.0231 148.0431 13.69168852   212"
      },
      "geometry": {
        "type": "Point",
        "coordinates": [
          176.61809912264724,
          -70.86916800362553
        ]
      }
    }
  ]
}